NORAD_CAT_ID,OBJECT_NAME,OBJECT_TYPE,EPOCH,MEAN_MOTION,ECCENTRICITY,INCLINATION,RA_OF_ASC_NODE,ARG_OF_PERICENTER,MEAN_ANOMALY,BSTAR,MEAN_MOTION_DOT,MEAN_MOTION_DDOT,TLE_LINE0,TLE_LINE1,TLE_LINE2,SEMIMAJOR_AXIS,PERIOD,APOGEE,PERIGEE,DECAYED
55291.0,STARLINK-5327,PAYLOAD,2023-10-14 10:23:16,14.98330982,0.0002727,69.9992,76.3704,266.7611,93.3236,-7.6005e-06,-1.84e-06,0.0,0 STARLINK-5327,1 55291U 23010Y   23287.43282603 -.00000184  00000-0 -76005-5 0  9996,2 55291  69.9992  76.3704 0002727 266.7611  93.3236 14.98330982 41550,6950.19,96.107,573.95,570.16,0.0
55291.0,STARLINK-5327,PAYLOAD,2023-10-14 13:35:32,14.98326172,0.0002863,69.9987,76.0337,266.7991,93.284,-4.0619e-05,-5.78e-06,0.0,0 STARLINK-5327,1 55291U 23010Y   23287.56634967 -.00000578  00000-0 -40619-4 0  9992,2 55291  69.9987  76.0337 0002863 266.7991  93.2840 14.98326172 41887,6950.205,96.107,574.06,570.08,0.0
55291.0,STARLINK-5327,PAYLOAD,2023-10-14 20:00:05,14.98325641,0.0003,70.0003,75.3634,272.5342,87.5474,-8.4416e-05,-1.1e-05,0.0,0 STARLINK-5327,1 55291U 23010Y   23287.83339218 -.00001100  00000-0 -84416-4 0  9998,2 55291  70.0003  75.3634 0003000 272.5342  87.5474 14.98325641 41610,6950.206,96.107,574.156,569.986,0.0
55291.0,STARLINK-5327,PAYLOAD,2023-10-15 12:01:25,14.983334,0.0003027,70.0002,73.6802,272.6263,87.455,2.5126e-05,2.07e-06,0.0,0 STARLINK-5327,1 55291U 23010Y   23288.50098408  .00000207  00000-0  25126-4 0  9994,2 55291  70.0002  73.6802 0003027 272.6263  87.4550 14.98333400 41716,6950.182,96.107,574.151,569.944,0.0
55291.0,STARLINK-5327,PAYLOAD,2023-10-15 13:37:33,14.98334621,0.0002992,70.0002,73.5118,272.6997,87.3819,2.3152e-05,1.83e-06,0.0,0 STARLINK-5327,1 55291U 23010Y   23288.56774323  .00000183  00000-0  23152-4 0  9997,2 55291  70.0002  73.5118 0002992 272.6997  87.3819 14.98334621 42038,6950.179,96.107,574.123,569.964,0.0
55291.0,STARLINK-5327,PAYLOAD,2023-10-15 20:02:04,14.98340474,0.0003059,70.0003,72.8387,273.3389,86.742,5.8478e-05,6.05e-06,0.0,0 STARLINK-5327,1 55291U 23010Y   23288.83477719  .00000605  00000-0  58478-4 0  9994,2 55291  70.0003  72.8387 0003059 273.3389  86.7420 14.98340474 41760,6950.161,96.106,574.152,569.899,0.0
55291.0,STARLINK-5327,PAYLOAD,2023-10-16 08:51:08,14.98341383,0.0003179,70.0001,71.492,273.9368,86.1428,0.00027692,3.214e-05,0.0,0 STARLINK-5327,1 55291U 23010Y   23289.36884435  .00003214  00000-0  27692-3 0  9992,2 55291  70.0001  71.4920 0003179 273.9368  86.1428 14.98341383 41843,6950.158,96.106,574.232,569.813,0.0
55291.0,STARLINK-5327,PAYLOAD,2023-10-16 13:39:33,14.98334885,0.0002504,70.0005,70.9888,263.554,96.5334,1.9698e-05,1.42e-06,0.0,0 STARLINK-5327,1 55291U 23010Y   23289.56913418  .00000142  00000-0  19698-4 0  9993,2 55291  70.0005  70.9888 0002504 263.5540  96.5334 14.98334885 42180,6950.178,96.107,573.783,570.302,0.0
55291.0,STARLINK-5327,PAYLOAD,2023-10-16 16:51:50,14.98317309,0.000286,70.0007,70.6514,269.903,90.1802,3.6961e-06,-4.9e-07,0.0,0 STARLINK-5327,1 55291U 23010Y   23289.70266629 -.00000049  00000-0  36961-5 0  9994,2 55291  70.0007  70.6514 0002860 269.9030  90.1802 14.98317309 41893,6950.232,96.108,574.085,570.109,0.0
55291.0,STARLINK-5327,PAYLOAD,2023-10-16 20:04:06,14.9831863,0.0003035,70.0003,70.3131,274.6568,85.4245,-3.1097e-05,-4.64e-06,0.0,0 STARLINK-5327,1 55291U 23010Y   23289.83618738 -.00000464  00000-0 -31097-4 0  9996,2 55291  70.0003  70.3131 0003035 274.6568  85.4245 14.98318630 42229,6950.228,96.108,574.202,569.984,0.0
55291.0,STARLINK-5327,PAYLOAD,2023-10-17 12:05:27,14.98322277,0.0002952,70.0007,68.6308,269.6392,90.4428,-0.00017869,-2.224e-05,0.0,0 STARLINK-5327,1 55291U 23010Y   23290.50379164 -.00002224  00000-0 -17869-3 0  9995,2 55291  70.0007  68.6308 0002952 269.6392  90.4428 14.98322277 42327,6950.217,96.107,574.133,570.03,0.0
55291.0,STARLINK-5327,PAYLOAD,2023-10-18 02:30:40,14.98327429,0.0003008,70.0007,67.1152,273.1751,86.9064,-0.00019326,-2.398e-05,0.0,0 STARLINK-5327,1 55291U 23010Y   23291.10463075 -.00002398  00000-0 -19326-3 0  9999,2 55291  70.0007  67.1152 0003008 273.1751  86.9064 14.98327429 42410,6950.201,96.107,574.156,569.975,0.0
55291.0,STARLINK-5327,PAYLOAD,2023-10-18 12:07:28,14.98333864,0.0002923,69.9996,66.1042,272.7792,87.3032,-0.00019905,-2.467e-05,0.0,0 STARLINK-5327,1 55291U 23010Y   23291.50518708 -.00002467  00000-0 -19905-3 0  9997,2 55291  69.9996  66.1042 0002923 272.7792  87.3032 14.98333864 42168,6950.181,96.107,574.077,570.014,0.0
55291.0,STARLINK-5327,PAYLOAD,2023-10-18 15:19:44,14.98336605,0.0002904,69.9998,65.7681,269.5326,90.55,-0.00016604,-2.074e-05,0.0,0 STARLINK-5327,1 55291U 23010Y   23291.63870396 -.00002074  00000-0 -16604-3 0  9992,2 55291  69.9998  65.7681 0002904 269.5326  90.5500 14.98336605 42498,6950.172,96.107,574.056,570.019,0.0
55291.0,STARLINK-5327,PAYLOAD,2023-10-19 12:09:28,14.98331138,0.0003137,69.9992,63.5794,269.7851,90.2949,0.00014763,1.669e-05,0.0,0 STARLINK-5327,1 55291U 23010Y   23292.50658161  .00001669  00000-0  14763-3 0  9994,2 55291  69.9992  63.5794 0003137 269.7851  90.2949 14.98331138 42318,6950.189,96.107,574.235,569.874,0.0
55291.0,STARLINK-5327,PAYLOAD,2023-10-20 12:11:30,14.98326626,0.0002603,69.9995,61.053,264.4039,95.6823,-6.6452e-05,-8.86e-06,0.0,0 STARLINK-5327,1 55291U 23010Y   23293.50799163 -.00000886  00000-0 -66452-4 0  9998,2 55291  69.9995  61.0530 0002603 264.4039  95.6823 14.98326626 42461,6950.203,96.107,573.877,570.259,0.0
55291.0,STARLINK-5327,PAYLOAD,2023-10-21 12:13:30,14.98335722,0.0002691,70.0022,58.5322,260.3495,99.736,-2.0953e-05,-3.43e-06,0.0,0 STARLINK-5327,1 55291U 23010Y   23294.50938377 -.00000343  00000-0 -20953-4 0  9995,2 55291  70.0022  58.5322 0002691 260.3495  99.7360 14.98335722 42618,6950.175,96.107,573.91,570.17,0.0
55291.0,STARLINK-5327,PAYLOAD,2023-10-21 18:38:02,14.98345671,0.0003124,70.0005,57.8593,267.2373,92.8428,6.84e-05,7.24e-06,0.0,0 STARLINK-5327,1 55291U 23010Y   23294.77641386  .00000724  00000-0  68400-4 0  9995,2 55291  70.0005  57.8593 0003124 267.2373  92.8428 14.98345671 42651,6950.144,96.106,574.181,569.838,0.0
55291.0,STARLINK-5327,PAYLOAD,2023-10-22 01:02:35,14.98325826,0.0002608,70.0012,57.183,269.595,90.491,4.4282e-05,4.35e-06,0.0,0 STARLINK-5327,1 55291U 23010Y   23295.04346545  .00000435  00000-0  44282-4 0  9996,2 55291  70.0012  57.1830 0002608 269.5950  90.4910 14.98325826 42692,6950.206,96.107,573.883,570.258,0.0
55291.0,STARLINK-5327,PAYLOAD,2023-10-22 13:51:41,14.98320036,0.0002622,70.0009,55.8374,265.9752,94.1108,-0.00021145,-2.614e-05,0.0,0 STARLINK-5327,1 55291U 23010Y   23295.57755894 -.00002614  00000-0 -21145-3 0  9990,2 55291  70.0009  55.8374 0002622 265.9752  94.1108 14.98320036 43084,6950.224,96.108,573.911,570.266,0.0
55291.0,STARLINK-5327,PAYLOAD,2023-10-22 18:40:05,14.98314977,0.0002185,70.0013,55.334,249.0886,111.0039,-5.1519e-05,-7.07e-06,0.0,0 STARLINK-5327,1 55291U 23010Y   23295.77783979 -.00000707  00000-0 -51519-4 0  9997,2 55291  70.0013  55.3340 0002185 249.0886 111.0039 14.98314977 42800,6950.239,96.108,573.623,570.586,0.0
55291.0,STARLINK-5327,PAYLOAD,2023-10-23 01:04:37,14.98328471,0.0002797,70.0013,54.6583,266.7398,93.3441,-8.2941e-05,-1.082e-05,0.0,0 STARLINK-5327,1 55291U 23010Y   23296.04487397 -.00001082  00000-0 -82941-4 0  9993,2 55291  70.0013  54.6583 0002797 266.7398  93.3441 14.98328471 42841,6950.198,96.107,574.007,570.119,0.0
55291.0,STARLINK-5327,PAYLOAD,2023-10-23 12:17:33,14.98331946,0.0002944,70.0013,53.4816,263.8907,96.1917,-5.6522e-05,-7.67e-06,0.0,0 STARLINK-5327,1 55291U 23010Y   23296.51218970 -.00000767  00000-0 -56522-4 0  9999,2 55291  70.0013  53.4816 0002944 263.8907  96.1917 14.98331946 43228,6950.187,96.107,574.098,570.006,0.0
55291.0,STARLINK-5327,PAYLOAD,2023-10-24 01:06:37,14.98329696,0.0002371,70.003,52.1341,273.3863,86.7025,3.6064e-05,3.37e-06,0.0,0 STARLINK-5327,1 55291U 23010Y   23297.04626913  .00000337  00000-0  36064-4 0  9998,2 55291  70.0030  52.1341 0002371 273.3863  86.7025 14.98329696 42994,6950.194,96.107,573.707,570.411,0.0
55291.0,STARLINK-5327,PAYLOAD,2023-10-24 12:19:34,14.98322606,0.0002905,70.0016,50.9572,260.1871,99.896,0.00011806,1.316e-05,0.0,0 STARLINK-5327,1 55291U 23010Y   23297.51358872  .00001316  00000-0  11806-3 0  9990,2 55291  70.0016  50.9572 0002905 260.1871  99.8960 14.98322606 43376,6950.216,96.107,574.1,570.062,0.0
55291.0,STARLINK-5327,PAYLOAD,2023-10-25 13:57:43,14.98326708,0.0002492,70.0028,48.2647,240.4863,119.6048,-9.4699e-06,-2.06e-06,0.0,0 STARLINK-5327,1 55291U 23010Y   23298.58175084 -.00000206  00000-0 -94699-5 0  9992,2 55291  70.0028  48.2647 0002492 240.4863 119.6048 14.98326708 43224,6950.203,96.107,573.8,570.336,0.0
55291.0,STARLINK-5327,PAYLOAD,2023-10-26 13:59:44,14.98324984,0.0002391,70.0034,45.7406,255.9132,104.1762,-6.2804e-05,-8.42e-06,0.0,0 STARLINK-5327,1 55291U 23010Y   23299.58315352 -.00000842  00000-0 -62804-4 0  9995,2 55291  70.0034  45.7406 0002391 255.9132 104.1762 14.98324984 43680,6950.208,96.107,573.735,570.412,0.0
55291.0,STARLINK-5327,PAYLOAD,2023-10-26 17:12:00,14.98329464,0.0002665,70.0025,45.4042,261.1895,98.8962,-4.1827e-05,-5.92e-06,0.0,0 STARLINK-5327,1 55291U 23010Y   23299.71666983 -.00000592  00000-0 -41827-4 0  9993,2 55291  70.0025  45.4042 0002665 261.1895  98.8962 14.98329464 43704,6950.195,96.107,573.912,570.207,0.0
55291.0,STARLINK-5327,PAYLOAD,2023-10-27 10:49:28,14.98334301,0.0002897,70.0019,43.5509,268.175,91.9077,9.0572e-05,9.88e-06,0.0,0 STARLINK-5327,1 55291U 23010Y   23300.45102127  .00000988  00000-0  90572-4 0  9990,2 55291  70.0019  43.5509 0002897 268.1750  91.9077 14.98334301 43503,6950.18,96.107,574.058,570.031,0.0
55291.0,STARLINK-5327,PAYLOAD,2023-10-27 17:13:59,14.98340175,0.0002721,70.0016,42.8783,262.0423,98.0427,0.00011783,1.314e-05,0.0,0 STARLINK-5327,1 55291U 23010Y   23300.71805529  .00001314  00000-0  11783-3 0  9995,2 55291  70.0016  42.8783 0002721 262.0423  98.0427 14.98340175 43853,6950.161,96.106,573.918,570.135,0.0
